API VERSION: 1.2
API SOURCE: NASA/JPL Horizons API



*******************************************************************************
Ephemeris / API_USER Wed Apr 15 10:19:13 2026 Pasadena, USA      / Horizons
*******************************************************************************
Target body name: Uranus (799)                    {source: ura184_merged}
Center body name: Sun (10)                        {source: DE441}
Center-site name: BODY CENTER
*******************************************************************************
Start time      : A.D. 2033-Feb-28 05:24:00.0000 TDB
Stop  time      : A.D. 2033-Mar-02 05:24:00.0000 TDB
Step-size       : 60 minutes
*******************************************************************************
Center geodetic : 0.0, 0.0, 0.0                   {E-lon(deg),Lat(deg),Alt(km)}
Center cylindric: 0.0, 0.0, 0.0                   {E-lon(deg),Dxy(km),Dz(km)}
Center radii    : 695700.0, 695700.0, 695700.0 km {Equator_a, b, pole_c}
Output units    : AU-D
Calendar mode   : Mixed Julian/Gregorian
Output type     : GEOMETRIC cartesian states
Output format   : 3 (position, velocity, LT, range, range-rate)
Reference frame : Ecliptic of J2000.0
*******************************************************************************
            JDTDB,            Calendar Date (TDB),                      X,                      Y,                      Z,                     VX,                     VY,                     VZ,                     LT,                     RG,                     RR,
**************************************************************************************************************************************************************************************************************************************************************************
$$SOE
2463656.725000000, A.D. 2033-Feb-28 05:24:00.0000,  3.960372309316810E-03,  1.900678759376711E+01,  7.042610888347708E-02, -3.959089054369881E-03, -1.789722409855785E-04,  5.049745297202924E-05,  1.097748061130525E-01,  1.900691848133044E+01, -1.796088356187936E-04,
2463656.766666667, A.D. 2033-Feb-28 06:24:00.0000,  3.795410164359383E-03,  1.900678013591418E+01,  7.042821300951804E-02, -3.959093854480599E-03, -1.790047006213556E-04,  5.050066446285619E-05,  1.097747628910283E-01,  1.900691099766892E+01, -1.796069178167331E-04,
2463656.808333333, A.D. 2033-Feb-28 07:24:00.0000,  3.630447825776262E-03,  1.900677267670853E+01,  7.043031727768942E-02, -3.959098342643150E-03, -1.790371735190344E-04,  5.050427208926568E-05,  1.097747196694644E-01,  1.900690351408712E+01, -1.796050115837937E-04,
2463656.850000000, A.D. 2033-Feb-28 08:24:00.0000,  3.465485307281321E-03,  1.900676521614937E+01,  7.043242170408150E-02, -3.959102484594386E-03, -1.790696713535149E-04,  5.050825561193565E-05,  1.097746764483567E-01,  1.900689603058429E+01, -1.796031286743420E-04,
2463656.891666667, A.D. 2033-Feb-28 09:24:00.0000,  3.300522624000352E-03,  1.900675775423541E+01,  7.043452630387854E-02, -3.959106246884853E-03, -1.791022060741376E-04,  5.051259113053059E-05,  1.097746332276980E-01,  1.900688854715924E+01, -1.796012811323867E-04,
2463656.933333333, A.D. 2033-Feb-28 10:24:00.0000,  3.135559792429238E-03,  1.900675029096485E+01,  7.043663109117870E-02, -3.959109597270942E-03, -1.791347898197023E-04,  5.051725075888839E-05,  1.097745900074786E-01,  1.900688106381021E+01, -1.795994812078243E-04,
2463656.975000000, A.D. 2033-Feb-28 11:24:00.0000,  2.970596830374438E-03,  1.900674282633541E+01,  7.043873607883221E-02, -3.959112505169686E-03, -1.791674348099015E-04,  5.052220239522822E-05,  1.097745467876853E-01,  1.900687358053498E+01, -1.795977412487344E-04,
2463657.016666667, A.D. 2033-Feb-28 12:24:00.0000,  2.805633756873391E-03,  1.900673536034426E+01,  7.044084127826609E-02, -3.959114942161705E-03, -1.792001532138802E-04,  5.052740961511365E-05,  1.097745035683022E-01,  1.900686609733077E+01, -1.795960735703252E-04,
2463657.058333333, A.D. 2033-Feb-28 13:24:00.0000,  2.640670592093411E-03,  1.900672789298812E+01,  7.044294669928819E-02, -3.959116882525025E-03, -1.792329569980291E-04,  5.053283170811008E-05,  1.097744603493105E-01,  1.900685861419434E+01, -1.795944903025543E-04,
2463657.100000000, A.D. 2033-Feb-28 14:24:00.0000,  2.475707357207882E-03,  1.900672042426317E+01,  7.044505234993725E-02, -3.959118303780779E-03, -1.792658577565024E-04,  5.053842387058205E-05,  1.097744171306886E-01,  1.900685113112191E+01, -1.795930032198639E-04,
2463657.141666667, A.D. 2033-Feb-28 15:24:00.0000,  2.310744074249860E-03,  1.900671295416514E+01,  7.044715823629896E-02, -3.959119187230887E-03, -1.792988665292535E-04,  5.054413755730920E-05,  1.097743739124118E-01,  1.900684364810925E+01, -1.795916235578114E-04,
2463657.183333333, A.D. 2033-Feb-28 16:24:00.0000,  2.145780765943800E-03,  1.900670548268931E+01,  7.044926436237037E-02, -3.959119518468153E-03, -1.793319936135266E-04,  5.054992098411167E-05,  1.097743306944529E-01,  1.900683616515164E+01, -1.795903618225608E-04,
2463657.225000000, A.D. 2033-Feb-28 17:24:00.0000,  1.980817455516925E-03,  1.900669800983056E+01,  7.045137072993087E-02, -3.959119287840469E-03, -1.793652483756470E-04,  5.055571976310867E-05,  1.097742874767826E-01,  1.900682868224398E+01, -1.795892276001436E-04,
2463657.266666667, A.D. 2033-Feb-28 18:24:00.0000,  1.815854166492415E-03,  1.900669053558340E+01,  7.045347733844819E-02, -3.959118490853004E-03, -1.793986390705388E-04,  5.056147764231899E-05,  1.097742442593690E-01,  1.900682119938079E+01, -1.795882293730282E-04,
2463657.308333333, A.D. 2033-Feb-28 19:24:00.0000,  1.650890922467514E-03,  1.900668305994199E+01,  7.045558418503525E-02, -3.959117128495468E-03, -1.794321726765978E-04,  5.056713731283286E-05,  1.097742010421786E-01,  1.900681371655622E+01, -1.795873743517605E-04,
2463657.350000000, A.D. 2033-Feb-28 20:24:00.0000,  1.485927746879585E-03,  1.900667558290028E+01,  7.045769126439531E-02, -3.959115207485190E-03, -1.794658547532926E-04,  5.057264124055094E-05,  1.097741578251760E-01,  1.900680623376419E+01, -1.795866683292157E-04,
2463657.391666667, A.D. 2033-Feb-28 21:24:00.0000,  1.320964662763926E-03,  1.900666810445198E+01,  7.045979856884900E-02, -3.959112740421030E-03, -1.794996893281048E-04,  5.057793247628582E-05,  1.097741146083250E-01,  1.900679875099839E+01, -1.795861155642487E-04,
2463657.433333333, A.D. 2033-Feb-28 22:24:00.0000,  1.156001692507098E-03,  1.900666062459068E+01,  7.046190608837412E-02, -3.959109745847551E-03, -1.795336788181323E-04,  5.058295539858601E-05,  1.097740713915883E-01,  1.900679126825239E+01, -1.795857187002404E-04,
2463657.475000000, A.D. 2033-Feb-28 23:24:00.0000,  9.910388575993453E-04,  1.900665314330991E+01,  7.046401381066229E-02, -3.959106248233119E-03, -1.795678239898388E-04,  5.058765634857126E-05,  1.097740281749282E-01,  1.900678378551965E+01, -1.795854787221823E-04,
2463657.516666667, A.D. 2033-Mar-01 00:24:00.0000,  8.260761783895915E-04,  1.900664566060320E+01,  7.046612172121698E-02, -3.959102277869433E-03, -1.796021239580884E-04,  5.059198412578668E-05,  1.097739849583071E-01,  1.900677630279366E+01, -1.795853949535592E-04,
2463657.558333333, A.D. 2033-Mar-01 01:24:00.0000,  6.611136738461143E-04,  1.900663817646413E+01,  7.046822980347932E-02, -3.959097870703041E-03, -1.796365762227986E-04,  5.059589032874150E-05,  1.097739417416875E-01,  1.900676882006794E+01, -1.795854650914291E-04,
2463657.600000000, A.D. 2033-Mar-01 02:24:00.0000,  4.961513613254149E-04,  1.900663069088645E+01,  7.047033803892458E-02, -3.959093068111239E-03, -1.796711767383952E-04,  5.059932954321476E-05,  1.097738985250329E-01,  1.900676133733615E+01, -1.795856852748781E-04,
2463657.641666667, A.D. 2033-Mar-01 03:24:00.0000,  3.311892563513748E-04,  1.900662320386409E+01,  7.047244640720084E-02, -3.959087916635226E-03, -1.797059200079262E-04,  5.060225940495087E-05,  1.097738553083078E-01,  1.900675385459216E+01, -1.795860501786132E-04,
2463657.683333333, A.D. 2033-Mar-01 04:24:00.0000,  1.662273724062200E-04,  1.900661571539123E+01,  7.047455488625406E-02, -3.959082467682017E-03, -1.797407991903973E-04,  5.060464058985956E-05,  1.097738120914780E-01,  1.900674637183005E+01, -1.795865531200607E-04,
2463657.725000000, A.D. 2033-Mar-01 05:24:00.0000,  1.265720734345888E-06,  1.900660822546238E+01,  7.047666345245723E-02, -3.959076777203478E-03, -1.797758062069490E-04,  5.060643681243712E-05,  1.097737688745115E-01,  1.900673888904425E+01, -1.795871861652946E-04,
2463657.766666667, A.D. 2033-Mar-01 06:24:00.0000, -1.636956898399432E-04,  1.900660073407239E+01,  7.047877208073616E-02, -3.959070905355418E-03, -1.798109318292696E-04,  5.060761493920790E-05,  1.097737256573778E-01,  1.900673140622952E+01, -1.795879402167941E-04,
2463657.808333333, A.D. 2033-Mar-01 07:24:00.0000, -3.286568530801470E-04,  1.900659324121655E+01,  7.048088074470268E-02, -3.959064916132551E-03, -1.798461657326110E-04,  5.060814534498131E-05,  1.097736824400492E-01,  1.900672392338102E+01, -1.795888050649244E-04,
2463657.850000000, A.D. 2033-Mar-01 08:24:00.0000, -4.936177654892783E-04,  1.900658574689057E+01,  7.048298941683150E-02, -3.959058876965880E-03, -1.798814964965364E-04,  5.060800265097823E-05,  1.097736392225002E-01,  1.900671644049438E+01, -1.795897693857574E-04,
2463657.891666667, A.D. 2033-Mar-01 09:24:00.0000, -6.585784264436668E-04,  1.900657825109068E+01,  7.048509806863149E-02, -3.959052858258721E-03, -1.799169115397696E-04,  5.060716697949459E-05,  1.097735960047084E-01,  1.900670895756570E+01, -1.795908206711049E-04,
2463657.933333333, A.D. 2033-Mar-01 10:24:00.0000, -8.235388383055195E-04,  1.900657075381363E+01,  7.048720667094138E-02, -3.959046932826264E-03, -1.799523969820851E-04,  5.060562583239572E-05,  1.097735527866546E-01,  1.900670147459164E+01, -1.795919450833107E-04,
